LEMUR-2-LANGER2SPACE    
1 63358U 25061H   26117.19402919  .00005006  00000+0  27908-3 0  9990
2 63358  97.5585  93.2547 0018719  75.5463 284.7844 15.13895285 59909
LEMUR-2-BALTO           
1 63395U 25052BH  26117.14832462  .00006506  00000+0  53388-3 0  9993
2 63395  97.6941  11.3832 0001341 179.1020 181.0205 14.99555631 61115
LEMUR-2-KRISH           
1 64561U 25135AK  26117.10549601  .00005682  00000+0  51528-3 0  9995
2 64561  97.7669 232.3747 0001053 107.6261 252.5075 14.95717613 46288
LEMUR-2-HUBBLE-4        
1 64565U 25135AP  26117.21021801  .00001908  00000+0  18869-3 0  9996
2 64565  97.7637 231.7472 0003998  99.3600 260.8071 14.93052702 46264
LEMUR-2-SEJONG-2        
1 64586U 25135BL  26117.15305951  .00004805  00000+0  43048-3 0  9999
2 64586  97.7625 232.5612 0005759 127.4252 232.7494 14.96257786 46317
LEMUR-2-HUBBLE-5        
1 64840U 25135BT  26116.85581145  .00001909  00000+0  18448-3 0  9997
2 64840  97.7653 231.9585 0006623 139.8733 220.2977 14.93973087 46241
LEMUR-2-KARENDARRELL    
1 64841U 25135BU  26117.14434676  .00011097  00000+0  90965-3 0  9990
2 64841  97.7672 233.4672 0009288  46.7463 313.4534 14.99397793 46360
LEMUR-2-LUCILLE-ROSE    
1 65403U 25135BV  26117.05257541  .00009304  00000+0  76359-3 0  9998
2 65403  97.7646 233.3642 0011003  95.7381 264.5096 14.99387972 40971
LEMUR-2-AFFIE-WAUWIE    
1 66295U 25248C   26117.13620181  .00027207  00000+0  10636-2 0  9993
2 66295  45.3993  31.2220 0008960 156.4634 203.6666 15.25427228 26796
LEMUR-2-DEANANDMAEVE    
1 66678U 25276N   26117.14328311  .00009298  00000+0  44618-3 0  9998
2 66678  97.4229 191.4877 0006394 164.1683 195.9753 15.19073827 22664
LEMUR-2-STAS-GORBUK     
1 66686U 25276W   26117.08168081  .00006798  00000+0  32969-3 0  9994
2 66686  97.4264 191.4825 0006039 158.8372 201.3113 15.18811737 22656
LEMUR-2-TEODOR          
1 66768U 25276DG  26117.18725229  .00007053  00000+0  32594-3 0  9998
2 66768  97.4167 191.7587 0001248  74.3310 285.8063 15.20483085 22697
LEMUR-2-LAILA           
1 66776U 25276DQ  26117.16844382  .00007355  00000+0  33766-3 0  9994
2 66776  97.4192 191.8286 0001826  57.8868 302.2544 15.20695882 22695
LEMUR-2-CELIJO-SB-PK    
1 66781U 25276DW  26117.19211606  .00007300  00000+0  60154-3 0  9991
2 66781  97.5248 189.6615 0008609 304.4485  55.5924 14.99314354 14987
LEMUR-2-FINNIAN         
1 66782U 25276DX  26117.18347198  .00007114  00000+0  57975-3 0  9997
2 66782  97.5268 189.8405 0005279 283.3484  76.7151 14.99769519 12356
LEMUR-2-STARLIGHT       
1 66783U 25276DY  26117.16299525  .00006676  00000+0  56101-3 0  9998
2 66783  97.5291 189.5588 0012825 308.6306  51.3768 14.98552126 22550
