[{"OBJECT_NAME":"LEMUR-2-LANGER2SPACE","OBJECT_ID":"2025-061H","EPOCH":"2026-04-27T04:39:24.122016","MEAN_MOTION":15.13895285,"ECCENTRICITY":0.0018719,"INCLINATION":97.5585,"RA_OF_ASC_NODE":93.2547,"ARG_OF_PERICENTER":75.5463,"MEAN_ANOMALY":284.7844,"EPHEMERIS_TYPE":0,"CLASSIFICATION_TYPE":"U","NORAD_CAT_ID":63358,"ELEMENT_SET_NO":999,"REV_AT_EPOCH":5990,"BSTAR":0.00027908,"MEAN_MOTION_DOT":5.006e-5,"MEAN_MOTION_DDOT":0},{"OBJECT_NAME":"LEMUR-2-BALTO","OBJECT_ID":"2025-052BH","EPOCH":"2026-04-27T03:33:35.247168","MEAN_MOTION":14.99555631,"ECCENTRICITY":0.0001341,"INCLINATION":97.6941,"RA_OF_ASC_NODE":11.3832,"ARG_OF_PERICENTER":179.102,"MEAN_ANOMALY":181.0205,"EPHEMERIS_TYPE":0,"CLASSIFICATION_TYPE":"U","NORAD_CAT_ID":63395,"ELEMENT_SET_NO":999,"REV_AT_EPOCH":6111,"BSTAR":0.00053388,"MEAN_MOTION_DOT":6.506e-5,"MEAN_MOTION_DDOT":0},{"OBJECT_NAME":"LEMUR-2-KRISH","OBJECT_ID":"2025-135AK","EPOCH":"2026-04-27T02:31:54.855264","MEAN_MOTION":14.95717613,"ECCENTRICITY":0.0001053,"INCLINATION":97.7669,"RA_OF_ASC_NODE":232.3747,"ARG_OF_PERICENTER":107.6261,"MEAN_ANOMALY":252.5075,"EPHEMERIS_TYPE":0,"CLASSIFICATION_TYPE":"U","NORAD_CAT_ID":64561,"ELEMENT_SET_NO":999,"REV_AT_EPOCH":4628,"BSTAR":0.00051528,"MEAN_MOTION_DOT":5.682e-5,"MEAN_MOTION_DDOT":0},{"OBJECT_NAME":"LEMUR-2-HUBBLE-4","OBJECT_ID":"2025-135AP","EPOCH":"2026-04-27T05:02:42.836064","MEAN_MOTION":14.93052702,"ECCENTRICITY":0.0003998,"INCLINATION":97.7637,"RA_OF_ASC_NODE":231.7472,"ARG_OF_PERICENTER":99.36,"MEAN_ANOMALY":260.8071,"EPHEMERIS_TYPE":0,"CLASSIFICATION_TYPE":"U","NORAD_CAT_ID":64565,"ELEMENT_SET_NO":999,"REV_AT_EPOCH":4626,"BSTAR":0.00018869,"MEAN_MOTION_DOT":1.908e-5,"MEAN_MOTION_DDOT":0},{"OBJECT_NAME":"LEMUR-2-SEJONG-2","OBJECT_ID":"2025-135BL","EPOCH":"2026-04-27T03:40:24.341664","MEAN_MOTION":14.96257786,"ECCENTRICITY":0.0005759,"INCLINATION":97.7625,"RA_OF_ASC_NODE":232.5612,"ARG_OF_PERICENTER":127.4252,"MEAN_ANOMALY":232.7494,"EPHEMERIS_TYPE":0,"CLASSIFICATION_TYPE":"U","NORAD_CAT_ID":64586,"ELEMENT_SET_NO":999,"REV_AT_EPOCH":4631,"BSTAR":0.00043048,"MEAN_MOTION_DOT":4.805e-5,"MEAN_MOTION_DDOT":0},{"OBJECT_NAME":"LEMUR-2-HUBBLE-5","OBJECT_ID":"2025-135BT","EPOCH":"2026-04-26T20:32:22.109280","MEAN_MOTION":14.93973087,"ECCENTRICITY":0.0006623,"INCLINATION":97.7653,"RA_OF_ASC_NODE":231.9585,"ARG_OF_PERICENTER":139.8733,"MEAN_ANOMALY":220.2977,"EPHEMERIS_TYPE":0,"CLASSIFICATION_TYPE":"U","NORAD_CAT_ID":64840,"ELEMENT_SET_NO":999,"REV_AT_EPOCH":4624,"BSTAR":0.00018448,"MEAN_MOTION_DOT":1.909e-5,"MEAN_MOTION_DDOT":0},{"OBJECT_NAME":"LEMUR-2-KARENDARRELL","OBJECT_ID":"2025-135BU","EPOCH":"2026-04-27T03:27:51.560064","MEAN_MOTION":14.99397793,"ECCENTRICITY":0.0009288,"INCLINATION":97.7672,"RA_OF_ASC_NODE":233.4672,"ARG_OF_PERICENTER":46.7463,"MEAN_ANOMALY":313.4534,"EPHEMERIS_TYPE":0,"CLASSIFICATION_TYPE":"U","NORAD_CAT_ID":64841,"ELEMENT_SET_NO":999,"REV_AT_EPOCH":4636,"BSTAR":0.00090965,"MEAN_MOTION_DOT":0.00011097,"MEAN_MOTION_DDOT":0},{"OBJECT_NAME":"LEMUR-2-LUCILLE-ROSE","OBJECT_ID":"2025-135BV","EPOCH":"2026-04-27T01:15:42.515424","MEAN_MOTION":14.99387972,"ECCENTRICITY":0.0011003,"INCLINATION":97.7646,"RA_OF_ASC_NODE":233.3642,"ARG_OF_PERICENTER":95.7381,"MEAN_ANOMALY":264.5096,"EPHEMERIS_TYPE":0,"CLASSIFICATION_TYPE":"U","NORAD_CAT_ID":65403,"ELEMENT_SET_NO":999,"REV_AT_EPOCH":4097,"BSTAR":0.00076359,"MEAN_MOTION_DOT":9.304e-5,"MEAN_MOTION_DDOT":0},{"OBJECT_NAME":"LEMUR-2-AFFIE-WAUWIE","OBJECT_ID":"2025-248C","EPOCH":"2026-04-27T03:16:07.836384","MEAN_MOTION":15.25427228,"ECCENTRICITY":0.000896,"INCLINATION":45.3993,"RA_OF_ASC_NODE":31.222,"ARG_OF_PERICENTER":156.4634,"MEAN_ANOMALY":203.6666,"EPHEMERIS_TYPE":0,"CLASSIFICATION_TYPE":"U","NORAD_CAT_ID":66295,"ELEMENT_SET_NO":999,"REV_AT_EPOCH":2679,"BSTAR":0.0010636,"MEAN_MOTION_DOT":0.00027207,"MEAN_MOTION_DDOT":0},{"OBJECT_NAME":"LEMUR-2-DEANANDMAEVE","OBJECT_ID":"2025-276N","EPOCH":"2026-04-27T03:26:19.660704","MEAN_MOTION":15.19073827,"ECCENTRICITY":0.0006394,"INCLINATION":97.4229,"RA_OF_ASC_NODE":191.4877,"ARG_OF_PERICENTER":164.1683,"MEAN_ANOMALY":195.9753,"EPHEMERIS_TYPE":0,"CLASSIFICATION_TYPE":"U","NORAD_CAT_ID":66678,"ELEMENT_SET_NO":999,"REV_AT_EPOCH":2266,"BSTAR":0.00044618,"MEAN_MOTION_DOT":9.298e-5,"MEAN_MOTION_DDOT":0},{"OBJECT_NAME":"LEMUR-2-STAS-GORBUK","OBJECT_ID":"2025-276W","EPOCH":"2026-04-27T01:57:37.221984","MEAN_MOTION":15.18811737,"ECCENTRICITY":0.0006039,"INCLINATION":97.4264,"RA_OF_ASC_NODE":191.4825,"ARG_OF_PERICENTER":158.8372,"MEAN_ANOMALY":201.3113,"EPHEMERIS_TYPE":0,"CLASSIFICATION_TYPE":"U","NORAD_CAT_ID":66686,"ELEMENT_SET_NO":999,"REV_AT_EPOCH":2265,"BSTAR":0.00032969,"MEAN_MOTION_DOT":6.798e-5,"MEAN_MOTION_DDOT":0},{"OBJECT_NAME":"LEMUR-2-TEODOR","OBJECT_ID":"2025-276DG","EPOCH":"2026-04-27T04:29:38.597856","MEAN_MOTION":15.20483085,"ECCENTRICITY":0.0001248,"INCLINATION":97.4167,"RA_OF_ASC_NODE":191.7587,"ARG_OF_PERICENTER":74.331,"MEAN_ANOMALY":285.8063,"EPHEMERIS_TYPE":0,"CLASSIFICATION_TYPE":"U","NORAD_CAT_ID":66768,"ELEMENT_SET_NO":999,"REV_AT_EPOCH":2269,"BSTAR":0.00032594,"MEAN_MOTION_DOT":7.053e-5,"MEAN_MOTION_DDOT":0},{"OBJECT_NAME":"LEMUR-2-LAILA","OBJECT_ID":"2025-276DQ","EPOCH":"2026-04-27T04:02:33.546048","MEAN_MOTION":15.20695882,"ECCENTRICITY":0.0001826,"INCLINATION":97.4192,"RA_OF_ASC_NODE":191.8286,"ARG_OF_PERICENTER":57.8868,"MEAN_ANOMALY":302.2544,"EPHEMERIS_TYPE":0,"CLASSIFICATION_TYPE":"U","NORAD_CAT_ID":66776,"ELEMENT_SET_NO":999,"REV_AT_EPOCH":2269,"BSTAR":0.00033766,"MEAN_MOTION_DOT":7.355e-5,"MEAN_MOTION_DDOT":0},{"OBJECT_NAME":"LEMUR-2-CELIJO-SB-PK","OBJECT_ID":"2025-276DW","EPOCH":"2026-04-27T04:36:38.827584","MEAN_MOTION":14.99314354,"ECCENTRICITY":0.0008609,"INCLINATION":97.5248,"RA_OF_ASC_NODE":189.6615,"ARG_OF_PERICENTER":304.4485,"MEAN_ANOMALY":55.5924,"EPHEMERIS_TYPE":0,"CLASSIFICATION_TYPE":"U","NORAD_CAT_ID":66781,"ELEMENT_SET_NO":999,"REV_AT_EPOCH":1498,"BSTAR":0.00060154,"MEAN_MOTION_DOT":7.3e-5,"MEAN_MOTION_DDOT":0},{"OBJECT_NAME":"LEMUR-2-FINNIAN","OBJECT_ID":"2025-276DX","EPOCH":"2026-04-27T04:24:11.979072","MEAN_MOTION":14.99769519,"ECCENTRICITY":0.0005279,"INCLINATION":97.5268,"RA_OF_ASC_NODE":189.8405,"ARG_OF_PERICENTER":283.3484,"MEAN_ANOMALY":76.7151,"EPHEMERIS_TYPE":0,"CLASSIFICATION_TYPE":"U","NORAD_CAT_ID":66782,"ELEMENT_SET_NO":999,"REV_AT_EPOCH":1235,"BSTAR":0.00057975,"MEAN_MOTION_DOT":7.114e-5,"MEAN_MOTION_DDOT":0},{"OBJECT_NAME":"LEMUR-2-STARLIGHT","OBJECT_ID":"2025-276DY","EPOCH":"2026-04-27T03:54:42.789600","MEAN_MOTION":14.98552126,"ECCENTRICITY":0.0012825,"INCLINATION":97.5291,"RA_OF_ASC_NODE":189.5588,"ARG_OF_PERICENTER":308.6306,"MEAN_ANOMALY":51.3768,"EPHEMERIS_TYPE":0,"CLASSIFICATION_TYPE":"U","NORAD_CAT_ID":66783,"ELEMENT_SET_NO":999,"REV_AT_EPOCH":2255,"BSTAR":0.00056101,"MEAN_MOTION_DOT":6.676e-5,"MEAN_MOTION_DDOT":0}]
